IRIDIUM 171             
1 43929U 19002H   25280.25045063 -.00000042  00000+0 -22233-4 0  9994
2 43929  86.3920  99.6054 0001894  81.0261 279.1149 14.34216986352704
IRIDIUM 170             
1 43930U 19002J   25280.25733181  .00000343  00000+0  50441-4 0  9995
2 43930  86.6035  99.3317 0002287  87.2848 272.8631 14.72253548362042
IRIDIUM 167             
1 43931U 19002K   25280.24410751  .00000018  00000+0 -72264-6 0  9999
2 43931  86.3911  99.3498 0002072  76.8166 283.3261 14.34217470352702
IRIDIUM 181             
1 56726U 23068S   25280.19290957  .00000531  00000+0  15185-3 0  9995
2 56726  86.4560 162.5097 0001613  78.3310 281.8072 14.43297719125946
IRIDIUM 177             
1 56727U 23068T   25279.74896316  .00000876  00000+0  11184-3 0  9993
2 56727  86.1916  89.1521 0002168  86.7109 273.4360 14.80226667128877
IRIDIUM 174             
1 56728U 23068U   25280.24498448  .00000591  00000+0  89837-4 0  9990
2 56728  86.6045  99.4590 0002713  96.6474 263.5052 14.72242002128800
IRIDIUM 178             
1 56729U 23068V   25280.07607435  .00001727  00000+0  22385-3 0  9996
2 56729  86.6529 131.1597 0002470  75.9687 284.1809 14.80230537128926
IRIDIUM 179             
1 56730U 23068W   25280.13824162  .00001833  00000+0  23767-3 0  9996
2 56730  86.6792 139.3493 0002367  68.3049 291.8424 14.80256565128936
