<?xml version="1.0" encoding="UTF-8"?>
<ndm xmlns:xsi="http://www.w3.org/2001/XMLSchema-instance" xsi:noNamespaceSchemaLocation="https://sanaregistry.org/r/ndmxml_unqualified/ndmxml-2.0.0-master-2.0.xsd">
<omm id="CCSDS_OMM_VERS" version="2.0">
<header><CREATION_DATE/><ORIGINATOR/></header><body><segment><metadata><OBJECT_NAME>IRIDIUM 171</OBJECT_NAME><OBJECT_ID>2019-002H</OBJECT_ID><CENTER_NAME>EARTH</CENTER_NAME><REF_FRAME>TEME</REF_FRAME><TIME_SYSTEM>UTC</TIME_SYSTEM><MEAN_ELEMENT_THEORY>SGP4</MEAN_ELEMENT_THEORY></metadata><data><meanElements><EPOCH>2025-10-07T06:00:38.934432</EPOCH><MEAN_MOTION>14.34216986</MEAN_MOTION><ECCENTRICITY>.00018943</ECCENTRICITY><INCLINATION>86.3920</INCLINATION><RA_OF_ASC_NODE>99.6054</RA_OF_ASC_NODE><ARG_OF_PERICENTER>81.0261</ARG_OF_PERICENTER><MEAN_ANOMALY>279.1149</MEAN_ANOMALY></meanElements><tleParameters><EPHEMERIS_TYPE>0</EPHEMERIS_TYPE><CLASSIFICATION_TYPE>U</CLASSIFICATION_TYPE><NORAD_CAT_ID>43929</NORAD_CAT_ID><ELEMENT_SET_NO>999</ELEMENT_SET_NO><REV_AT_EPOCH>35270</REV_AT_EPOCH><BSTAR>-.22232581E-4</BSTAR><MEAN_MOTION_DOT>-.42E-6</MEAN_MOTION_DOT><MEAN_MOTION_DDOT>0</MEAN_MOTION_DDOT></tleParameters></data></segment></body></omm>
<omm id="CCSDS_OMM_VERS" version="2.0">
<header><CREATION_DATE/><ORIGINATOR/></header><body><segment><metadata><OBJECT_NAME>IRIDIUM 170</OBJECT_NAME><OBJECT_ID>2019-002J</OBJECT_ID><CENTER_NAME>EARTH</CENTER_NAME><REF_FRAME>TEME</REF_FRAME><TIME_SYSTEM>UTC</TIME_SYSTEM><MEAN_ELEMENT_THEORY>SGP4</MEAN_ELEMENT_THEORY></metadata><data><meanElements><EPOCH>2025-10-07T06:10:33.468384</EPOCH><MEAN_MOTION>14.72253548</MEAN_MOTION><ECCENTRICITY>.00022879</ECCENTRICITY><INCLINATION>86.6035</INCLINATION><RA_OF_ASC_NODE>99.3317</RA_OF_ASC_NODE><ARG_OF_PERICENTER>87.2848</ARG_OF_PERICENTER><MEAN_ANOMALY>272.8631</MEAN_ANOMALY></meanElements><tleParameters><EPHEMERIS_TYPE>0</EPHEMERIS_TYPE><CLASSIFICATION_TYPE>U</CLASSIFICATION_TYPE><NORAD_CAT_ID>43930</NORAD_CAT_ID><ELEMENT_SET_NO>999</ELEMENT_SET_NO><REV_AT_EPOCH>36204</REV_AT_EPOCH><BSTAR>.50441391E-4</BSTAR><MEAN_MOTION_DOT>.343E-5</MEAN_MOTION_DOT><MEAN_MOTION_DDOT>0</MEAN_MOTION_DDOT></tleParameters></data></segment></body></omm>
<omm id="CCSDS_OMM_VERS" version="2.0">
<header><CREATION_DATE/><ORIGINATOR/></header><body><segment><metadata><OBJECT_NAME>IRIDIUM 167</OBJECT_NAME><OBJECT_ID>2019-002K</OBJECT_ID><CENTER_NAME>EARTH</CENTER_NAME><REF_FRAME>TEME</REF_FRAME><TIME_SYSTEM>UTC</TIME_SYSTEM><MEAN_ELEMENT_THEORY>SGP4</MEAN_ELEMENT_THEORY></metadata><data><meanElements><EPOCH>2025-10-07T05:51:30.888864</EPOCH><MEAN_MOTION>14.34217470</MEAN_MOTION><ECCENTRICITY>.00020723</ECCENTRICITY><INCLINATION>86.3911</INCLINATION><RA_OF_ASC_NODE>99.3498</RA_OF_ASC_NODE><ARG_OF_PERICENTER>76.8166</ARG_OF_PERICENTER><MEAN_ANOMALY>283.3261</MEAN_ANOMALY></meanElements><tleParameters><EPHEMERIS_TYPE>0</EPHEMERIS_TYPE><CLASSIFICATION_TYPE>U</CLASSIFICATION_TYPE><NORAD_CAT_ID>43931</NORAD_CAT_ID><ELEMENT_SET_NO>999</ELEMENT_SET_NO><REV_AT_EPOCH>35270</REV_AT_EPOCH><BSTAR>-.722636E-6</BSTAR><MEAN_MOTION_DOT>.18E-6</MEAN_MOTION_DOT><MEAN_MOTION_DDOT>0</MEAN_MOTION_DDOT></tleParameters></data></segment></body></omm>
<omm id="CCSDS_OMM_VERS" version="2.0">
<header><CREATION_DATE/><ORIGINATOR/></header><body><segment><metadata><OBJECT_NAME>IRIDIUM 181</OBJECT_NAME><OBJECT_ID>2023-068S</OBJECT_ID><CENTER_NAME>EARTH</CENTER_NAME><REF_FRAME>TEME</REF_FRAME><TIME_SYSTEM>UTC</TIME_SYSTEM><MEAN_ELEMENT_THEORY>SGP4</MEAN_ELEMENT_THEORY></metadata><data><meanElements><EPOCH>2025-10-07T04:37:47.386848</EPOCH><MEAN_MOTION>14.43297719</MEAN_MOTION><ECCENTRICITY>.00016138</ECCENTRICITY><INCLINATION>86.4560</INCLINATION><RA_OF_ASC_NODE>162.5097</RA_OF_ASC_NODE><ARG_OF_PERICENTER>78.3310</ARG_OF_PERICENTER><MEAN_ANOMALY>281.8072</MEAN_ANOMALY></meanElements><tleParameters><EPHEMERIS_TYPE>0</EPHEMERIS_TYPE><CLASSIFICATION_TYPE>U</CLASSIFICATION_TYPE><NORAD_CAT_ID>56726</NORAD_CAT_ID><ELEMENT_SET_NO>999</ELEMENT_SET_NO><REV_AT_EPOCH>12594</REV_AT_EPOCH><BSTAR>.15185127E-3</BSTAR><MEAN_MOTION_DOT>.531E-5</MEAN_MOTION_DOT><MEAN_MOTION_DDOT>0</MEAN_MOTION_DDOT></tleParameters></data></segment></body></omm>
<omm id="CCSDS_OMM_VERS" version="2.0">
<header><CREATION_DATE/><ORIGINATOR/></header><body><segment><metadata><OBJECT_NAME>IRIDIUM 177</OBJECT_NAME><OBJECT_ID>2023-068T</OBJECT_ID><CENTER_NAME>EARTH</CENTER_NAME><REF_FRAME>TEME</REF_FRAME><TIME_SYSTEM>UTC</TIME_SYSTEM><MEAN_ELEMENT_THEORY>SGP4</MEAN_ELEMENT_THEORY></metadata><data><meanElements><EPOCH>2025-10-06T17:58:30.417024</EPOCH><MEAN_MOTION>14.80226667</MEAN_MOTION><ECCENTRICITY>.00021689</ECCENTRICITY><INCLINATION>86.1916</INCLINATION><RA_OF_ASC_NODE>89.1521</RA_OF_ASC_NODE><ARG_OF_PERICENTER>86.7109</ARG_OF_PERICENTER><MEAN_ANOMALY>273.4360</MEAN_ANOMALY></meanElements><tleParameters><EPHEMERIS_TYPE>0</EPHEMERIS_TYPE><CLASSIFICATION_TYPE>U</CLASSIFICATION_TYPE><NORAD_CAT_ID>56727</NORAD_CAT_ID><ELEMENT_SET_NO>999</ELEMENT_SET_NO><REV_AT_EPOCH>12887</REV_AT_EPOCH><BSTAR>.11183901E-3</BSTAR><MEAN_MOTION_DOT>.876E-5</MEAN_MOTION_DOT><MEAN_MOTION_DDOT>0</MEAN_MOTION_DDOT></tleParameters></data></segment></body></omm>
<omm id="CCSDS_OMM_VERS" version="2.0">
<header><CREATION_DATE/><ORIGINATOR/></header><body><segment><metadata><OBJECT_NAME>IRIDIUM 174</OBJECT_NAME><OBJECT_ID>2023-068U</OBJECT_ID><CENTER_NAME>EARTH</CENTER_NAME><REF_FRAME>TEME</REF_FRAME><TIME_SYSTEM>UTC</TIME_SYSTEM><MEAN_ELEMENT_THEORY>SGP4</MEAN_ELEMENT_THEORY></metadata><data><meanElements><EPOCH>2025-10-07T05:52:46.659072</EPOCH><MEAN_MOTION>14.72242002</MEAN_MOTION><ECCENTRICITY>.00027132</ECCENTRICITY><INCLINATION>86.6045</INCLINATION><RA_OF_ASC_NODE>99.4590</RA_OF_ASC_NODE><ARG_OF_PERICENTER>96.6474</ARG_OF_PERICENTER><MEAN_ANOMALY>263.5052</MEAN_ANOMALY></meanElements><tleParameters><EPHEMERIS_TYPE>0</EPHEMERIS_TYPE><CLASSIFICATION_TYPE>U</CLASSIFICATION_TYPE><NORAD_CAT_ID>56728</NORAD_CAT_ID><ELEMENT_SET_NO>999</ELEMENT_SET_NO><REV_AT_EPOCH>12880</REV_AT_EPOCH><BSTAR>.8983744E-4</BSTAR><MEAN_MOTION_DOT>.591E-5</MEAN_MOTION_DOT><MEAN_MOTION_DDOT>0</MEAN_MOTION_DDOT></tleParameters></data></segment></body></omm>
<omm id="CCSDS_OMM_VERS" version="2.0">
<header><CREATION_DATE/><ORIGINATOR/></header><body><segment><metadata><OBJECT_NAME>IRIDIUM 178</OBJECT_NAME><OBJECT_ID>2023-068V</OBJECT_ID><CENTER_NAME>EARTH</CENTER_NAME><REF_FRAME>TEME</REF_FRAME><TIME_SYSTEM>UTC</TIME_SYSTEM><MEAN_ELEMENT_THEORY>SGP4</MEAN_ELEMENT_THEORY></metadata><data><meanElements><EPOCH>2025-10-07T01:49:32.823840</EPOCH><MEAN_MOTION>14.80230537</MEAN_MOTION><ECCENTRICITY>.00024703</ECCENTRICITY><INCLINATION>86.6529</INCLINATION><RA_OF_ASC_NODE>131.1597</RA_OF_ASC_NODE><ARG_OF_PERICENTER>75.9687</ARG_OF_PERICENTER><MEAN_ANOMALY>284.1809</MEAN_ANOMALY></meanElements><tleParameters><EPHEMERIS_TYPE>0</EPHEMERIS_TYPE><CLASSIFICATION_TYPE>U</CLASSIFICATION_TYPE><NORAD_CAT_ID>56729</NORAD_CAT_ID><ELEMENT_SET_NO>999</ELEMENT_SET_NO><REV_AT_EPOCH>12892</REV_AT_EPOCH><BSTAR>.2238516E-3</BSTAR><MEAN_MOTION_DOT>.1727E-4</MEAN_MOTION_DOT><MEAN_MOTION_DDOT>0</MEAN_MOTION_DDOT></tleParameters></data></segment></body></omm>
<omm id="CCSDS_OMM_VERS" version="2.0">
<header><CREATION_DATE/><ORIGINATOR/></header><body><segment><metadata><OBJECT_NAME>IRIDIUM 179</OBJECT_NAME><OBJECT_ID>2023-068W</OBJECT_ID><CENTER_NAME>EARTH</CENTER_NAME><REF_FRAME>TEME</REF_FRAME><TIME_SYSTEM>UTC</TIME_SYSTEM><MEAN_ELEMENT_THEORY>SGP4</MEAN_ELEMENT_THEORY></metadata><data><meanElements><EPOCH>2025-10-07T03:19:04.075968</EPOCH><MEAN_MOTION>14.80256565</MEAN_MOTION><ECCENTRICITY>.00023675</ECCENTRICITY><INCLINATION>86.6792</INCLINATION><RA_OF_ASC_NODE>139.3493</RA_OF_ASC_NODE><ARG_OF_PERICENTER>68.3049</ARG_OF_PERICENTER><MEAN_ANOMALY>291.8424</MEAN_ANOMALY></meanElements><tleParameters><EPHEMERIS_TYPE>0</EPHEMERIS_TYPE><CLASSIFICATION_TYPE>U</CLASSIFICATION_TYPE><NORAD_CAT_ID>56730</NORAD_CAT_ID><ELEMENT_SET_NO>999</ELEMENT_SET_NO><REV_AT_EPOCH>12893</REV_AT_EPOCH><BSTAR>.23766725E-3</BSTAR><MEAN_MOTION_DOT>.1833E-4</MEAN_MOTION_DOT><MEAN_MOTION_DDOT>0</MEAN_MOTION_DDOT></tleParameters></data></segment></body></omm>
</ndm>
